GSAT0225 (GALILEO 29)   
1 59598U 24079A   26204.47107102 -.00000048  00000+0  00000+0 0  9995
2 59598  55.1409 100.0656 0000263 338.6950 195.2242  1.70474088 13935
GSAT0227 (GALILEO 30)   
1 59600U 24079C   26199.09194253 -.00000031  00000+0  00000+0 0  9995
2 59600  55.1327 100.2145 0002950  69.2435 290.8270  1.70473877 13896
GSAT0232 (GALILEO 32)   
1 61182U 24167A   26204.11527438  .00000075  00000+0  00000+0 0  9993
2 61182  55.1775 220.3272 0006357 233.9215 184.7136  1.70474277 11498
GSAT0226 (GALILEO 31)   
1 61183U 24167B   26202.99405729  .00000069  00000+0  00000+0 0  9999
2 61183  55.1766 220.3651 0003180 239.5530 302.2968  1.70474215 11440
BEIDOU-3 M25            
1 61186U 24168B   26204.44739422 -.00000094  00000+0  00000+0 0  9994
2 61186  54.4384 300.9812 0003547 291.0777  77.4803  1.86230351 12468
BEIDOU-3 M27            
1 61187U 24168C   26204.77205794 -.00000091  00000+0  00000+0 0  9998
2 61187  54.4336 300.9527 0000817  35.8427 325.4221  1.86230449  9949
NAVSTAR 83 (USA 440)    
1 62339U 24242A   26200.72170847 -.00000109  00000+0  00000+0 0  9992
2 62339  54.8338 332.8621 0017996   4.3540 337.1791  2.00572353 11908
QZS-6 (MICHIBIKI-6)     
1 62876U 25023A   26204.84410507 -.00000228  00000+0  00000+0 0  9995
2 62876   0.0198  55.6692 0002091  60.5066 219.7744  1.00273687  5314
COSMOS 2584 [GLONASS-K2]
1 63130U 25042A   26202.86533319 -.00000053  00000+0  00000+0 0  9993
2 63130  65.1046  71.6233 0005592 211.4404 148.5924  2.13103874 10784
NAVSTAR 84 (USA 545)    
1 64202U 25116A   26204.23516985 -.00000080  00000+0  00000+0 0  9999
2 64202  55.2596  29.6807 0008389 339.3259 202.3720  2.00573560  8598
COSMOS 2596 [GLONASS-K1]
1 65590U 25206B   26202.71196580 -.00000090  00000+0  00000+0 0  9997
2 65590  64.6120 313.7831 0011241 307.0070  51.3277  2.13101030  6640
GSAT0233 (GALILEO 33)   
1 67160U 25302A   26202.83917450 -.00000048  00000+0  00000+0 0  9992
2 67160  54.3554 101.1433 0001183 153.0567  30.2541  1.70474120  3713
GSAT0234 (GALILEO 34)   
1 67162U 25302C   26204.30262163 -.00000049  00000+0  00000+0 0  9993
2 67162  54.3582 101.1005 0001512 325.5942 215.9708  1.70474095  3796
NAVSTAR 85 (USA 581)    
1 67588U 26017A   26204.09379284 -.00000068  00000+0  00000+0 0  9999
2 67588  55.1115  87.3138 0021267 260.4452  99.3642  2.00570431432335
NAVSTAR 86 (USA 585)    
1 68791U 26087A   26204.05589674  .00000089  00000+0  00000+0 0  9997
2 68791  54.9614 206.3692 0020497 105.7313  72.5010  2.00573476  1552
